{
  "type": "FeatureCollection",
  "features": [
    {
      "type": "Feature",
      "properties": {
        "norad_id": 41026,
        "name": "YAOGAN-28",
        "group": "resource",
        "lat": -23.38531983431274,
        "lon": -47.53633213149252,
        "alt_km": 501.2620311537894,
        "timestamp": "2025-12-24T03:53:29.299690+00:00",
        "meta_object_name": "YAOGAN-28",
        "meta_object_id": "2015-064A",
        "meta_epoch": "2025-12-23T20:42:06.499008",
        "meta_mean_motion": 15.24523328,
        "meta_eccentricity": 0.0012663,
        "meta_inclination": 97.2818,
        "meta_ra_of_asc_node": 135.3423,
        "meta_arg_of_pericenter": 90.786,
        "meta_mean_anomaly": 269.4829,
        "meta_ephemeris_type": 0,
        "meta_classification_type": "U",
        "meta_norad_cat_id": 41026,
        "meta_element_set_no": 999,
        "meta_rev_at_epoch": 56394,
        "meta_bstar": 0.00033939,
        "meta_mean_motion_dot": 8.3e-05,
        "meta_mean_motion_ddot": 0,
        "tle_line1": "1 41026U 15064A   25357.86257522  .00008300  00000+0  33939-3 0  9998",
        "tle_line2": "2 41026  97.2818 135.3423 0012663  90.7860 269.4829 15.24523328563941"
      },
      "geometry": {
        "type": "Point",
        "coordinates": [
          -47.53633213149252,
          -23.38531983431274
        ]
      }
    },
    {
      "type": "Feature",
      "properties": {
        "norad_id": 41038,
        "name": "YAOGAN-29",
        "group": "resource",
        "lat": 33.743802715257694,
        "lon": 15.96471618683017,
        "alt_km": 618.5048371751827,
        "timestamp": "2025-12-24T03:53:29.299701+00:00",
        "meta_object_name": "YAOGAN-29",
        "meta_object_id": "2015-069A",
        "meta_epoch": "2025-12-23T21:15:37.056384",
        "meta_mean_motion": 14.82892738,
        "meta_eccentricity": 8.03e-05,
        "meta_inclination": 98.0204,
        "meta_ra_of_asc_node": 21.0923,
        "meta_arg_of_pericenter": 170.5608,
        "meta_mean_anomaly": 189.562,
        "meta_ephemeris_type": 0,
        "meta_classification_type": "U",
        "meta_norad_cat_id": 41038,
        "meta_element_set_no": 999,
        "meta_rev_at_epoch": 54464,
        "meta_bstar": 4.6738e-05,
        "meta_mean_motion_dot": 3.25e-06,
        "meta_mean_motion_ddot": 0,
        "tle_line1": "1 41038U 15069A   25357.88584556  .00000325  00000+0  46738-4 0  9999",
        "tle_line2": "2 41038  98.0204  21.0923 0000803 170.5608 189.5620 14.82892738544642"
      },
      "geometry": {
        "type": "Point",
        "coordinates": [
          15.96471618683017,
          33.743802715257694
        ]
      }
    },
    {
      "type": "Feature",
      "properties": {
        "norad_id": 41167,
        "name": "KENT RIDGE 1",
        "group": "resource",
        "lat": -14.9688377289425,
        "lon": 36.17535930462845,
        "alt_km": 494.177437886744,
        "timestamp": "2025-12-24T03:53:29.299711+00:00",
        "meta_object_name": "KENT RIDGE 1",
        "meta_object_id": "2015-077B",
        "meta_epoch": "2025-12-23T17:16:23.896128",
        "meta_mean_motion": 15.21715063,
        "meta_eccentricity": 0.0008541,
        "meta_inclination": 14.9789,
        "meta_ra_of_asc_node": 129.6607,
        "meta_arg_of_pericenter": 285.8156,
        "meta_mean_anomaly": 74.1224,
        "meta_ephemeris_type": 0,
        "meta_classification_type": "U",
        "meta_norad_cat_id": 41167,
        "meta_element_set_no": 999,
        "meta_rev_at_epoch": 55431,
        "meta_bstar": 0.00016015,
        "meta_mean_motion_dot": 4.493e-05,
        "meta_mean_motion_ddot": 0,
        "tle_line1": "1 41167U 15077B   25357.71972102  .00004493  00000+0  16015-3 0  9995",
        "tle_line2": "2 41167  14.9789 129.6607 0008541 285.8156  74.1224 15.21715063554312"
      },
      "geometry": {
        "type": "Point",
        "coordinates": [
          36.17535930462845,
          -14.9688377289425
        ]
      }
    },
    {
      "type": "Feature",
      "properties": {
        "norad_id": 41194,
        "name": "GAOFEN-4",
        "group": "resource",
        "lat": -0.004057464668843892,
        "lon": -102.9391767407056,
        "alt_km": 35784.56915869368,
        "timestamp": "2025-12-24T03:53:29.299724+00:00",
        "meta_object_name": "GAOFEN-4",
        "meta_object_id": "2015-083A",
        "meta_epoch": "2025-12-19T15:27:26.627616",
        "meta_mean_motion": 1.00273138,
        "meta_eccentricity": 0.0002945,
        "meta_inclination": 0.1878,
        "meta_ra_of_asc_node": 81.7841,
        "meta_arg_of_pericenter": 93.4275,
        "meta_mean_anomaly": 250.8523,
        "meta_ephemeris_type": 0,
        "meta_classification_type": "U",
        "meta_norad_cat_id": 41194,
        "meta_element_set_no": 999,
        "meta_rev_at_epoch": 3672,
        "meta_bstar": 0,
        "meta_mean_motion_dot": -3.11e-06,
        "meta_mean_motion_ddot": 0,
        "tle_line1": "1 41194U 15083A   25353.64405819 -.00000311  00000+0  00000+0 0  9995",
        "tle_line2": "2 41194   0.1878  81.7841 0002945  93.4275 250.8523  1.00273138 36722"
      },
      "geometry": {
        "type": "Point",
        "coordinates": [
          -102.9391767407056,
          -0.004057464668843892
        ]
      }
    },
    {
      "type": "Feature",
      "properties": {
        "norad_id": 41240,
        "name": "JASON-3",
        "group": "resource",
        "lat": -23.35488346260937,
        "lon": 122.74065753699584,
        "alt_km": 1312.860699055468,
        "timestamp": "2025-12-24T03:53:29.299736+00:00",
        "meta_object_name": "JASON-3",
        "meta_object_id": "2016-002A",
        "meta_epoch": "2025-12-23T18:42:15.139296",
        "meta_mean_motion": 12.87626974,
        "meta_eccentricity": 0.000727,
        "meta_inclination": 66.0403,
        "meta_ra_of_asc_node": 134.6145,
        "meta_arg_of_pericenter": 271.4104,
        "meta_mean_anomaly": 88.6081,
        "meta_ephemeris_type": 0,
        "meta_classification_type": "U",
        "meta_norad_cat_id": 41240,
        "meta_element_set_no": 999,
        "meta_rev_at_epoch": 46466,
        "meta_bstar": 6.6853e-05,
        "meta_mean_motion_dot": -4.5e-07,
        "meta_mean_motion_ddot": 0,
        "tle_line1": "1 41240U 16002A   25357.77934189 -.00000045  00000+0  66853-4 0  9991",
        "tle_line2": "2 41240  66.0403 134.6145 0007270 271.4104  88.6081 12.87626974464660"
      },
      "geometry": {
        "type": "Point",
        "coordinates": [
          122.74065753699584,
          -23.35488346260937
        ]
      }
    },
    {
      "type": "Feature",
      "properties": {
        "norad_id": 41335,
        "name": "SENTINEL-3A",
        "group": "resource",
        "lat": -51.22245606774058,
        "lon": 73.9117321465632,
        "alt_km": 810.1050907535946,
        "timestamp": "2025-12-24T03:53:29.299747+00:00",
        "meta_object_name": "SENTINEL-3A",
        "meta_object_id": "2016-011A",
        "meta_epoch": "2025-12-23T19:43:09.922368",
        "meta_mean_motion": 14.2673479,
        "meta_eccentricity": 8.96e-05,
        "meta_inclination": 98.6299,
        "meta_ra_of_asc_node": 62.6795,
        "meta_arg_of_pericenter": 96.004,
        "meta_mean_anomaly": 264.1243,
        "meta_ephemeris_type": 0,
        "meta_classification_type": "U",
        "meta_norad_cat_id": 41335,
        "meta_element_set_no": 999,
        "meta_rev_at_epoch": 51305,
        "meta_bstar": 7.1757e-05,
        "meta_mean_motion_dot": 1.3e-06,
        "meta_mean_motion_ddot": 0,
        "tle_line1": "1 41335U 16011A   25357.82164262  .00000130  00000+0  71757-4 0  9992",
        "tle_line2": "2 41335  98.6299  62.6795 0000896  96.0040 264.1243 14.26734790513057"
      },
      "geometry": {
        "type": "Point",
        "coordinates": [
          73.9117321465632,
          -51.22245606774058
        ]
      }
    },
    {
      "type": "Feature",
      "properties": {
        "norad_id": 41556,
        "name": "ZIYUAN 3-02 (ZY 3-02)",
        "group": "resource",
        "lat": -19.4771366830914,
        "lon": 74.773551577166,
        "alt_km": 513.1065030940163,
        "timestamp": "2025-12-24T03:53:29.299757+00:00",
        "meta_object_name": "ZIYUAN 3-02 (ZY 3-02)",
        "meta_object_id": "2016-033A",
        "meta_epoch": "2025-12-23T20:05:03.414912",
        "meta_mean_motion": 15.21205517,
        "meta_eccentricity": 0.0011328,
        "meta_inclination": 97.4028,
        "meta_ra_of_asc_node": 71.8182,
        "meta_arg_of_pericenter": 204.7265,
        "meta_mean_anomaly": 155.3429,
        "meta_ephemeris_type": 0,
        "meta_classification_type": "U",
        "meta_norad_cat_id": 41556,
        "meta_element_set_no": 999,
        "meta_rev_at_epoch": 53132,
        "meta_bstar": 0.00033945,
        "meta_mean_motion_dot": 7.517e-05,
        "meta_mean_motion_ddot": 0,
        "tle_line1": "1 41556U 16033A   25357.83684508  .00007517  00000+0  33945-3 0  9994",
        "tle_line2": "2 41556  97.4028  71.8182 0011328 204.7265 155.3429 15.21205517531323"
      },
      "geometry": {
        "type": "Point",
        "coordinates": [
          74.773551577166,
          -19.4771366830914
        ]
      }
    }
  ]
}